{
  "norad_id": 40545,
  "name": "GSAT0204 (GALILEO 8)",
  "history": [
    {
      "epoch": "2026-03-27T08:19:21.027360Z",
      "apogee_km": 23231.83908614054,
      "perigee_km": 23212.217728495336,
      "latitude_deg": 4.1352251730621076e-05,
      "longitude_deg": 34.2371418836976,
      "height_km": 23218.91919987412,
      "semi_major_axis_km": 29600.165407317934,
      "eccentricity": 0.00033144,
      "inclination_deg": 56.8192,
      "raan_deg": 343.847,
      "arg_perigee_deg": 290.4029,
      "mean_anomaly_deg": 69.5952,
      "mean_motion_rev_day": 1.70475336
    }
  ]
}